STARLINK-36348          
1 67851U 26034B   26064.74805279  .00227387  00000+0  11207-2 0  9993
2 67851  53.1591 231.1027 0000833  63.9371 296.1737 15.80965124  3315
STARLINK-36276          
1 67852U 26034C   26064.68408390  .00139685  00000+0  69804-3 0  9990
2 67852  53.1593 231.4144 0000690  64.0200 296.0894 15.80929634  3303
STARLINK-36785          
1 67853U 26034D   26064.74655315  .00255418  00000+0  12539-2 0  9994
2 67853  53.1591 231.0923 0001160  52.6460 307.4668 15.80973217  3310
STARLINK-36608          
1 67854U 26034E   26064.74580080  .00259242  00000+0  12716-2 0  9997
2 67854  53.1593 231.0873 0000510  71.6106 288.4972 15.80980758  3306
STARLINK-36838          
1 67855U 26034F   26064.68183300  .00305880  00000+0  14910-2 0  9993
2 67855  53.1591 231.3989 0000748  48.9850 311.1238 15.80988445  3302
STARLINK-36843          
1 67856U 26034G   26064.74355247  .00234282  00000+0  11537-2 0  9991
2 67856  53.1592 231.0723 0000805  38.4134 321.6946 15.80965242  3313
STARLINK-36828          
1 67857U 26034H   26064.74430273  .00280918  00000+0  13743-2 0  9993
2 67857  53.1590 231.0775 0001555  25.2677 334.8422 15.80979003  3313
STARLINK-36837          
1 67858U 26034J   26064.74280263  .00245887  00000+0  12090-2 0  9996
2 67858  53.1594 231.0663 0001008  34.7556 325.3532 15.80965555  3312
STARLINK-36393          
1 67859U 26034K   26064.74205375  .00224467  00000+0  11072-2 0  9998
2 67859  53.1593 231.0613 0000948  59.8283 300.2833 15.80956891  3313
STARLINK-35873          
1 67860U 26034L   26064.74130146  .00250679  00000+0  12313-2 0  9996
2 67860  53.1593 231.0561 0000859  43.0508 317.0582 15.80974371  3346
STARLINK-36325          
1 67861U 26034M   26064.74055100  .00275034  00000+0  13464-2 0  9993
2 67861  53.1594 231.0509 0001003  27.3528 332.7547 15.80979921  3317
STARLINK-36332          
1 67862U 26034N   26064.73980245  .00231592  00000+0  11410-2 0  9990
2 67862  53.1592 231.0463 0001093  39.0156 321.0946 15.80962347  3319
STARLINK-36835          
1 67863U 26034P   26064.73905199  .00217976  00000+0  10760-2 0  9993
2 67863  53.1596 231.0403 0001059  45.9055 314.2054 15.80959733  3313
STARLINK-36831          
1 67864U 26034Q   26064.73829671  .00292427  00000+0  14272-2 0  9990
2 67864  53.1592 231.0354 0001667  50.5902 309.5268 15.80999191  3319
STARLINK-36738          
1 67865U 26034R   26064.73755065  .00223651  00000+0  11031-2 0  9999
2 67865  53.1593 231.0299 0000286  90.4159 269.6897 15.80959860  3315
STARLINK-36780          
1 67866U 26034S   26064.73680164  .00210275  00000+0  10392-2 0  9994
2 67866  53.1597 231.0239 0001165  41.8156 318.2956 15.80955215  3315
STARLINK-36761          
1 67867U 26034T   26064.66667824 -.00058438  00000+0 -29414-3 0  9994
2 67867  53.1595 231.3667 0000827  84.9509 240.1120 15.80902666  3213
