[{"OBJECT_NAME":"STARLINK-36348","OBJECT_ID":"2026-034B","EPOCH":"2026-03-05T17:57:11.761056","MEAN_MOTION":15.80965124,"ECCENTRICITY":8.33e-5,"INCLINATION":53.1591,"RA_OF_ASC_NODE":231.1027,"ARG_OF_PERICENTER":63.9371,"MEAN_ANOMALY":296.1737,"EPHEMERIS_TYPE":0,"CLASSIFICATION_TYPE":"U","NORAD_CAT_ID":67851,"ELEMENT_SET_NO":999,"REV_AT_EPOCH":331,"BSTAR":0.0011207,"MEAN_MOTION_DOT":0.00227387,"MEAN_MOTION_DDOT":0},{"OBJECT_NAME":"STARLINK-36276","OBJECT_ID":"2026-034C","EPOCH":"2026-03-05T16:25:04.848960","MEAN_MOTION":15.80929634,"ECCENTRICITY":6.9e-5,"INCLINATION":53.1593,"RA_OF_ASC_NODE":231.4144,"ARG_OF_PERICENTER":64.02,"MEAN_ANOMALY":296.0894,"EPHEMERIS_TYPE":0,"CLASSIFICATION_TYPE":"U","NORAD_CAT_ID":67852,"ELEMENT_SET_NO":999,"REV_AT_EPOCH":330,"BSTAR":0.00069804,"MEAN_MOTION_DOT":0.00139685,"MEAN_MOTION_DDOT":0},{"OBJECT_NAME":"STARLINK-36785","OBJECT_ID":"2026-034D","EPOCH":"2026-03-05T17:55:02.192160","MEAN_MOTION":15.80973217,"ECCENTRICITY":0.000116,"INCLINATION":53.1591,"RA_OF_ASC_NODE":231.0923,"ARG_OF_PERICENTER":52.646,"MEAN_ANOMALY":307.4668,"EPHEMERIS_TYPE":0,"CLASSIFICATION_TYPE":"U","NORAD_CAT_ID":67853,"ELEMENT_SET_NO":999,"REV_AT_EPOCH":331,"BSTAR":0.0012539,"MEAN_MOTION_DOT":0.00255418,"MEAN_MOTION_DDOT":0},{"OBJECT_NAME":"STARLINK-36608","OBJECT_ID":"2026-034E","EPOCH":"2026-03-05T17:53:57.189120","MEAN_MOTION":15.80980758,"ECCENTRICITY":5.1e-5,"INCLINATION":53.1593,"RA_OF_ASC_NODE":231.0873,"ARG_OF_PERICENTER":71.6106,"MEAN_ANOMALY":288.4972,"EPHEMERIS_TYPE":0,"CLASSIFICATION_TYPE":"U","NORAD_CAT_ID":67854,"ELEMENT_SET_NO":999,"REV_AT_EPOCH":330,"BSTAR":0.0012716,"MEAN_MOTION_DOT":0.00259242,"MEAN_MOTION_DDOT":0},{"OBJECT_NAME":"STARLINK-36838","OBJECT_ID":"2026-034F","EPOCH":"2026-03-05T16:21:50.371200","MEAN_MOTION":15.80988445,"ECCENTRICITY":7.48e-5,"INCLINATION":53.1591,"RA_OF_ASC_NODE":231.3989,"ARG_OF_PERICENTER":48.985,"MEAN_ANOMALY":311.1238,"EPHEMERIS_TYPE":0,"CLASSIFICATION_TYPE":"U","NORAD_CAT_ID":67855,"ELEMENT_SET_NO":999,"REV_AT_EPOCH":330,"BSTAR":0.001491,"MEAN_MOTION_DOT":0.0030588,"MEAN_MOTION_DDOT":0},{"OBJECT_NAME":"STARLINK-36843","OBJECT_ID":"2026-034G","EPOCH":"2026-03-05T17:50:42.933408","MEAN_MOTION":15.80965242,"ECCENTRICITY":8.05e-5,"INCLINATION":53.1592,"RA_OF_ASC_NODE":231.0723,"ARG_OF_PERICENTER":38.4134,"MEAN_ANOMALY":321.6946,"EPHEMERIS_TYPE":0,"CLASSIFICATION_TYPE":"U","NORAD_CAT_ID":67856,"ELEMENT_SET_NO":999,"REV_AT_EPOCH":331,"BSTAR":0.0011537,"MEAN_MOTION_DOT":0.00234282,"MEAN_MOTION_DDOT":0},{"OBJECT_NAME":"STARLINK-36828","OBJECT_ID":"2026-034H","EPOCH":"2026-03-05T17:51:47.755872","MEAN_MOTION":15.80979003,"ECCENTRICITY":0.0001555,"INCLINATION":53.159,"RA_OF_ASC_NODE":231.0775,"ARG_OF_PERICENTER":25.2677,"MEAN_ANOMALY":334.8422,"EPHEMERIS_TYPE":0,"CLASSIFICATION_TYPE":"U","NORAD_CAT_ID":67857,"ELEMENT_SET_NO":999,"REV_AT_EPOCH":331,"BSTAR":0.0013743,"MEAN_MOTION_DOT":0.00280918,"MEAN_MOTION_DDOT":0},{"OBJECT_NAME":"STARLINK-36837","OBJECT_ID":"2026-034J","EPOCH":"2026-03-05T17:49:38.147232","MEAN_MOTION":15.80965555,"ECCENTRICITY":0.0001008,"INCLINATION":53.1594,"RA_OF_ASC_NODE":231.0663,"ARG_OF_PERICENTER":34.7556,"MEAN_ANOMALY":325.3532,"EPHEMERIS_TYPE":0,"CLASSIFICATION_TYPE":"U","NORAD_CAT_ID":67858,"ELEMENT_SET_NO":999,"REV_AT_EPOCH":331,"BSTAR":0.001209,"MEAN_MOTION_DOT":0.00245887,"MEAN_MOTION_DDOT":0},{"OBJECT_NAME":"STARLINK-36393","OBJECT_ID":"2026-034K","EPOCH":"2026-03-05T17:48:33.444000","MEAN_MOTION":15.80956891,"ECCENTRICITY":9.48e-5,"INCLINATION":53.1593,"RA_OF_ASC_NODE":231.0613,"ARG_OF_PERICENTER":59.8283,"MEAN_ANOMALY":300.2833,"EPHEMERIS_TYPE":0,"CLASSIFICATION_TYPE":"U","NORAD_CAT_ID":67859,"ELEMENT_SET_NO":999,"REV_AT_EPOCH":331,"BSTAR":0.0011072,"MEAN_MOTION_DOT":0.00224467,"MEAN_MOTION_DDOT":0},{"OBJECT_NAME":"STARLINK-35873","OBJECT_ID":"2026-034L","EPOCH":"2026-03-05T17:47:28.446144","MEAN_MOTION":15.80974371,"ECCENTRICITY":8.59e-5,"INCLINATION":53.1593,"RA_OF_ASC_NODE":231.0561,"ARG_OF_PERICENTER":43.0508,"MEAN_ANOMALY":317.0582,"EPHEMERIS_TYPE":0,"CLASSIFICATION_TYPE":"U","NORAD_CAT_ID":67860,"ELEMENT_SET_NO":999,"REV_AT_EPOCH":334,"BSTAR":0.0012313,"MEAN_MOTION_DOT":0.00250679,"MEAN_MOTION_DDOT":0},{"OBJECT_NAME":"STARLINK-36325","OBJECT_ID":"2026-034M","EPOCH":"2026-03-05T17:46:23.606400","MEAN_MOTION":15.80979921,"ECCENTRICITY":0.0001003,"INCLINATION":53.1594,"RA_OF_ASC_NODE":231.0509,"ARG_OF_PERICENTER":27.3528,"MEAN_ANOMALY":332.7547,"EPHEMERIS_TYPE":0,"CLASSIFICATION_TYPE":"U","NORAD_CAT_ID":67861,"ELEMENT_SET_NO":999,"REV_AT_EPOCH":331,"BSTAR":0.0013464,"MEAN_MOTION_DOT":0.00275034,"MEAN_MOTION_DDOT":0},{"OBJECT_NAME":"STARLINK-36332","OBJECT_ID":"2026-034N","EPOCH":"2026-03-05T17:45:18.931680","MEAN_MOTION":15.80962347,"ECCENTRICITY":0.0001093,"INCLINATION":53.1592,"RA_OF_ASC_NODE":231.0463,"ARG_OF_PERICENTER":39.0156,"MEAN_ANOMALY":321.0946,"EPHEMERIS_TYPE":0,"CLASSIFICATION_TYPE":"U","NORAD_CAT_ID":67862,"ELEMENT_SET_NO":999,"REV_AT_EPOCH":331,"BSTAR":0.001141,"MEAN_MOTION_DOT":0.00231592,"MEAN_MOTION_DDOT":0},{"OBJECT_NAME":"STARLINK-36835","OBJECT_ID":"2026-034P","EPOCH":"2026-03-05T17:44:14.091936","MEAN_MOTION":15.80959733,"ECCENTRICITY":0.0001059,"INCLINATION":53.1596,"RA_OF_ASC_NODE":231.0403,"ARG_OF_PERICENTER":45.9055,"MEAN_ANOMALY":314.2054,"EPHEMERIS_TYPE":0,"CLASSIFICATION_TYPE":"U","NORAD_CAT_ID":67863,"ELEMENT_SET_NO":999,"REV_AT_EPOCH":331,"BSTAR":0.001076,"MEAN_MOTION_DOT":0.00217976,"MEAN_MOTION_DDOT":0},{"OBJECT_NAME":"STARLINK-36831","OBJECT_ID":"2026-034Q","EPOCH":"2026-03-05T17:43:08.835744","MEAN_MOTION":15.80999191,"ECCENTRICITY":0.0001667,"INCLINATION":53.1592,"RA_OF_ASC_NODE":231.0354,"ARG_OF_PERICENTER":50.5902,"MEAN_ANOMALY":309.5268,"EPHEMERIS_TYPE":0,"CLASSIFICATION_TYPE":"U","NORAD_CAT_ID":67864,"ELEMENT_SET_NO":999,"REV_AT_EPOCH":331,"BSTAR":0.0014272,"MEAN_MOTION_DOT":0.00292427,"MEAN_MOTION_DDOT":0},{"OBJECT_NAME":"STARLINK-36738","OBJECT_ID":"2026-034R","EPOCH":"2026-03-05T17:42:04.376160","MEAN_MOTION":15.8095986,"ECCENTRICITY":2.86e-5,"INCLINATION":53.1593,"RA_OF_ASC_NODE":231.0299,"ARG_OF_PERICENTER":90.4159,"MEAN_ANOMALY":269.6897,"EPHEMERIS_TYPE":0,"CLASSIFICATION_TYPE":"U","NORAD_CAT_ID":67865,"ELEMENT_SET_NO":999,"REV_AT_EPOCH":331,"BSTAR":0.0011031,"MEAN_MOTION_DOT":0.00223651,"MEAN_MOTION_DDOT":0},{"OBJECT_NAME":"STARLINK-36780","OBJECT_ID":"2026-034S","EPOCH":"2026-03-05T17:40:59.661696","MEAN_MOTION":15.80955215,"ECCENTRICITY":0.0001165,"INCLINATION":53.1597,"RA_OF_ASC_NODE":231.0239,"ARG_OF_PERICENTER":41.8156,"MEAN_ANOMALY":318.2956,"EPHEMERIS_TYPE":0,"CLASSIFICATION_TYPE":"U","NORAD_CAT_ID":67866,"ELEMENT_SET_NO":999,"REV_AT_EPOCH":331,"BSTAR":0.0010392,"MEAN_MOTION_DOT":0.00210275,"MEAN_MOTION_DDOT":0},{"OBJECT_NAME":"STARLINK-36761","OBJECT_ID":"2026-034T","EPOCH":"2026-03-05T16:00:00.999936","MEAN_MOTION":15.80902666,"ECCENTRICITY":8.27e-5,"INCLINATION":53.1595,"RA_OF_ASC_NODE":231.3667,"ARG_OF_PERICENTER":84.9509,"MEAN_ANOMALY":240.112,"EPHEMERIS_TYPE":0,"CLASSIFICATION_TYPE":"U","NORAD_CAT_ID":67867,"ELEMENT_SET_NO":999,"REV_AT_EPOCH":321,"BSTAR":-0.00029414,"MEAN_MOTION_DOT":-0.00058438,"MEAN_MOTION_DDOT":0}]
